[Satellite]
VERSION=1.1
NAME=DRAGON CRS-20 DEB
NICKNAME=DRAGON CRS-20 DEB
TLE1=1 45343U 20016C   20073.54465776  .11872546  12273-4  18903-2 0  9990
TLE2=2 45343  51.6198  99.3064 0033218  77.0231 284.0224 16.31013381  1021
STATUS=0
